0 CZ-2C DEB
1 33323U 08041D   13283.26932078  .00003172  00000-0  42738-3 0  8800
2 33323 097.8215 346.1683 0029563 048.3296 351.8810 14.79561507274381
0 CZ-2C DEB
1 33323U 08041D   13285.29938049  .00003120  00000-0  42049-3 0  8818
2 33323 097.8216 348.1440 0029467 041.8036 004.7942 14.79568390274688
0 CZ-2C DEB
1 33323U 08041D   13287.39803983  .00003254  00000-0  43818-3 0  8823
2 33323 097.8220 350.1871 0029248 035.1171 023.1051 14.79580851274993
0 CZ-2C DEB
1 33323U 08041D   13289.77480844  .00004797  00000-0  64230-3 0  8839
2 33323 097.8217 352.5007 0029105 027.3498 083.0846 14.79599487275345
0 CZ-2C DEB
1 33323U 08041D   13292.13106685  .00003581  00000-0  48114-3 0  8845
2 33323 097.8208 354.7944 0028940 019.7869 033.8175 14.79617380275691
0 CZ-2C DEB
1 33323U 08041D   13294.15961625  .00004591  00000-0  61475-3 0  8850
2 33323 097.8197 356.7687 0028702 013.1996 039.1860 14.79627517275995
0 CZ-2C DEB
1 33323U 08041D   13296.18991727  .00004903  00000-0  65581-3 0  8861
2 33323 097.8196 358.7446 0028514 006.5050 054.0661 14.79643304276298
